STARLINK-32608          
1 62124U 24222L   26068.18745894  .00034607  00000+0  12608-2 0  9993
2 62124  43.0006 138.8927 0001275 238.5627 121.5100 15.27590701 72664
FLOCK 4G-36             
1 62675U 25009BU  26068.70726311  .00013573  00000+0  51122-3 0  9993
2 62675  97.4053 151.0513 0003474 324.2456  35.8550 15.27209548 63701
