[{"OBJECT_NAME":"STARLINK-32608","OBJECT_ID":"2024-222L","EPOCH":"2026-03-09T04:29:56.452416","MEAN_MOTION":15.27590701,"ECCENTRICITY":0.00012751,"INCLINATION":43.0006,"RA_OF_ASC_NODE":138.8927,"ARG_OF_PERICENTER":238.5627,"MEAN_ANOMALY":121.51,"EPHEMERIS_TYPE":0,"CLASSIFICATION_TYPE":"U","NORAD_CAT_ID":62124,"ELEMENT_SET_NO":999,"REV_AT_EPOCH":7266,"BSTAR":0.0012608186,"MEAN_MOTION_DOT":0.00034607,"MEAN_MOTION_DDOT":0},{"OBJECT_NAME":"FLOCK 4G-36","OBJECT_ID":"2025-009BU","EPOCH":"2026-03-09T16:58:27.533568","MEAN_MOTION":15.27209548,"ECCENTRICITY":0.00034736,"INCLINATION":97.4053,"RA_OF_ASC_NODE":151.0513,"ARG_OF_PERICENTER":324.2456,"MEAN_ANOMALY":35.855,"EPHEMERIS_TYPE":0,"CLASSIFICATION_TYPE":"U","NORAD_CAT_ID":62675,"ELEMENT_SET_NO":999,"REV_AT_EPOCH":6370,"BSTAR":0.00051121743,"MEAN_MOTION_DOT":0.00013573,"MEAN_MOTION_DDOT":0}]
